{
    "links": {
        "self": "http://www.neowsapp.com/rest/v1/neo/3448006?api_key=iIulBulltgU6a56xZRHN4H3l9WmuAYTsLGpBGhQ2"
    },
    "id": "3448006",
    "neo_reference_id": "3448006",
    "name": "(2009 DO4)",
    "designation": "2009 DO4",
    "nasa_jpl_url": "http://ssd.jpl.nasa.gov/sbdb.cgi?sstr=3448006",
    "absolute_magnitude_h": 21.3,
    "estimated_diameter": {
        "kilometers": {
            "estimated_diameter_min": 0.1460679643,
            "estimated_diameter_max": 0.3266178974
        },
        "meters": {
            "estimated_diameter_min": 146.0679642714,
            "estimated_diameter_max": 326.6178974458
        },
        "miles": {
            "estimated_diameter_min": 0.090762397,
            "estimated_diameter_max": 0.2029508896
        },
        "feet": {
            "estimated_diameter_min": 479.2256199,
            "estimated_diameter_max": 1071.581062656
        }
    },
    "is_potentially_hazardous_asteroid": false,
    "close_approach_data": [
        {
            "close_approach_date": "2009-02-26",
            "close_approach_date_full": "2009-Feb-26 21:14",
            "epoch_date_close_approach": 1235682840000,
            "relative_velocity": {
                "kilometers_per_second": "21.5985687709",
                "kilometers_per_hour": "77754.8475752972",
                "miles_per_hour": "48313.8384836618"
            },
            "miss_distance": {
                "astronomical": "0.1890862974",
                "lunar": "73.5545696886",
                "kilometers": "28286907.337226538",
                "miles": "17576669.1783727044"
            },
            "orbiting_body": "Earth"
        }
    ],
    "orbital_data": {
        "orbit_id": "11",
        "orbit_determination_date": "2017-04-06 09:01:17",
        "first_observation_date": "2009-02-20",
        "last_observation_date": "2009-02-27",
        "data_arc_in_days": 7,
        "observations_used": 51,
        "orbit_uncertainty": "9",
        "minimum_orbit_intersection": ".187218",
        "jupiter_tisserand_invariant": "2.878",
        "epoch_osculation": "2454885.5",
        "eccentricity": ".5719764256043131",
        "semi_major_axis": "2.666391466811044",
        "inclination": "37.95066778312961",
        "ascending_node_longitude": "334.1959913232292",
        "orbital_period": "1590.31916639414",
        "perihelion_distance": "1.141278406362622",
        "perihelion_argument": "205.727415185076",
        "aphelion_distance": "4.191504527259466",
        "perihelion_time": "2454911.864448786438",
        "mean_anomaly": "354.0318888411325",
        "mean_motion": ".2263696543482258",
        "equinox": "J2000",
        "orbit_class": {
            "orbit_class_type": "AMO",
            "orbit_class_description": "Near-Earth asteroid orbits similar to that of 1221 Amor",
            "orbit_class_range": "1.017 AU < q (perihelion) < 1.3 AU"
        }
    },
    "is_sentry_object": false
}